STARLINK-36840          
1 67850U 26034A   26078.25002315 -.01911052  00000+0 -11948-1 0  9996
2 67850  53.1590 163.4482 0001430  93.5588 107.4435 15.79281786  5446
STARLINK-36348          
1 67851U 26034B   26078.27969888 -.00861231  00000+0 -61918-2 0  9991
2 67851  53.1590 163.3183 0000792  63.3076 296.8025 15.75315601  5450
STARLINK-36276          
1 67852U 26034C   26078.25002315 -.01906689  00000+0 -15207-1 0  9990
2 67852  53.1596 163.4714 0001206  84.8535 104.4492 15.73840179  5393
STARLINK-36785          
1 67853U 26034D   26078.21230056  .00273852  00000+0  13430-2 0  9995
2 67853  53.1536 163.6066 0002538  92.2231 267.9082 15.80943819  5444
STARLINK-36608          
1 67854U 26034E   26077.95868192  .00356874  00000+0  17310-2 0  9991
2 67854  53.1563 164.8695 0003473  85.3745 274.7674 15.80958378  5391
STARLINK-36838          
1 67855U 26034F   26077.64182281  .00356816  00000+0  17332-2 0  9996
2 67855  53.1591 166.4482 0000604  24.8968 335.2084 15.80927986  5358
STARLINK-36843          
1 67856U 26034G   26078.20930040  .00267592  00000+0  13143-2 0  9992
2 67856  53.1566 163.5868 0002120  85.6573 274.4692 15.80929156  5449
STARLINK-36828          
1 67857U 26034H   26077.95718061  .00297673  00000+0  14545-2 0  9991
2 67857  53.1579 164.8590 0003224  83.1023 277.0366 15.80957695  5401
STARLINK-36837          
1 67858U 26034J   26077.95568111  .00245243  00000+0  12074-2 0  9992
2 67858  53.1573 164.8484 0003935  77.8640 282.2823 15.80934235  5403
STARLINK-36393          
1 67859U 26034K   26077.95493035  .00344212  00000+0  16713-2 0  9995
2 67859  53.1583 164.8437 0004398  67.0518 293.0968 15.80966360  5406
STARLINK-35873          
1 67860U 26034L   26077.63807241  .00222121  00000+0  10962-2 0  9994
2 67860  53.1582 166.4226 0001270  90.5629 269.5539 15.80951784  5384
STARLINK-36325          
1 67861U 26034M   26077.95343264  .00373204  00000+0  18052-2 0  9997
2 67861  53.1582 164.8331 0004193  75.1861 284.9626 15.80972637  5409
STARLINK-36332          
1 67862U 26034N   26078.20554834  .00287621  00000+0  14007-2 0  9997
2 67862  53.1582 163.5606 0002487 303.3567  56.7217 15.81058640  5449
STARLINK-36835          
1 67863U 26034P   26078.20479852  .00279836  00000+0  13719-2 0  9992
2 67863  53.1559 163.5552 0001983  89.8289 270.2961 15.80935568  5442
STARLINK-36831          
1 67864U 26034Q   26077.95117658  .00356731  00000+0  17280-2 0  9994
2 67864  53.1589 164.8178 0003215  67.9829 292.1536 15.80988921  5409
STARLINK-36738          
1 67865U 26034R   26077.95043136  .00396950  00000+0  19135-2 0  9992
2 67865  53.1596 164.8120 0004282  76.8150 283.3351 15.80984836  5404
