[{"OBJECT_NAME":"STARLINK-36840","OBJECT_ID":"2026-034A","EPOCH":"2026-03-19T06:00:02.000160","MEAN_MOTION":15.79281786,"ECCENTRICITY":0.00014307,"INCLINATION":53.159,"RA_OF_ASC_NODE":163.4482,"ARG_OF_PERICENTER":93.5588,"MEAN_ANOMALY":107.4435,"EPHEMERIS_TYPE":0,"CLASSIFICATION_TYPE":"U","NORAD_CAT_ID":67850,"ELEMENT_SET_NO":999,"REV_AT_EPOCH":544,"BSTAR":-0.011947683,"MEAN_MOTION_DOT":-0.01911052,"MEAN_MOTION_DDOT":0},{"OBJECT_NAME":"STARLINK-36348","OBJECT_ID":"2026-034B","EPOCH":"2026-03-19T06:42:45.983232","MEAN_MOTION":15.75315601,"ECCENTRICITY":7.92e-5,"INCLINATION":53.159,"RA_OF_ASC_NODE":163.3183,"ARG_OF_PERICENTER":63.3076,"MEAN_ANOMALY":296.8025,"EPHEMERIS_TYPE":0,"CLASSIFICATION_TYPE":"U","NORAD_CAT_ID":67851,"ELEMENT_SET_NO":999,"REV_AT_EPOCH":545,"BSTAR":-0.0061918105,"MEAN_MOTION_DOT":-0.00861231,"MEAN_MOTION_DDOT":0},{"OBJECT_NAME":"STARLINK-36276","OBJECT_ID":"2026-034C","EPOCH":"2026-03-19T06:00:02.000160","MEAN_MOTION":15.73840179,"ECCENTRICITY":0.00012069,"INCLINATION":53.1596,"RA_OF_ASC_NODE":163.4714,"ARG_OF_PERICENTER":84.8535,"MEAN_ANOMALY":104.4492,"EPHEMERIS_TYPE":0,"CLASSIFICATION_TYPE":"U","NORAD_CAT_ID":67852,"ELEMENT_SET_NO":999,"REV_AT_EPOCH":539,"BSTAR":-0.015207481,"MEAN_MOTION_DOT":-0.01906689,"MEAN_MOTION_DDOT":0},{"OBJECT_NAME":"STARLINK-36785","OBJECT_ID":"2026-034D","EPOCH":"2026-03-19T05:05:42.768384","MEAN_MOTION":15.80943819,"ECCENTRICITY":0.00025383,"INCLINATION":53.1536,"RA_OF_ASC_NODE":163.6066,"ARG_OF_PERICENTER":92.2231,"MEAN_ANOMALY":267.9082,"EPHEMERIS_TYPE":0,"CLASSIFICATION_TYPE":"U","NORAD_CAT_ID":67853,"ELEMENT_SET_NO":999,"REV_AT_EPOCH":544,"BSTAR":0.0013430219,"MEAN_MOTION_DOT":0.00273852,"MEAN_MOTION_DDOT":0},{"OBJECT_NAME":"STARLINK-36608","OBJECT_ID":"2026-034E","EPOCH":"2026-03-18T23:00:30.117888","MEAN_MOTION":15.80958378,"ECCENTRICITY":0.00034732,"INCLINATION":53.1563,"RA_OF_ASC_NODE":164.8695,"ARG_OF_PERICENTER":85.3745,"MEAN_ANOMALY":274.7674,"EPHEMERIS_TYPE":0,"CLASSIFICATION_TYPE":"U","NORAD_CAT_ID":67854,"ELEMENT_SET_NO":999,"REV_AT_EPOCH":539,"BSTAR":0.0017309883,"MEAN_MOTION_DOT":0.00356874,"MEAN_MOTION_DDOT":0},{"OBJECT_NAME":"STARLINK-36838","OBJECT_ID":"2026-034F","EPOCH":"2026-03-18T15:24:13.490784","MEAN_MOTION":15.80927986,"ECCENTRICITY":6.044e-5,"INCLINATION":53.1591,"RA_OF_ASC_NODE":166.4482,"ARG_OF_PERICENTER":24.8968,"MEAN_ANOMALY":335.2084,"EPHEMERIS_TYPE":0,"CLASSIFICATION_TYPE":"U","NORAD_CAT_ID":67855,"ELEMENT_SET_NO":999,"REV_AT_EPOCH":535,"BSTAR":0.0017331961,"MEAN_MOTION_DOT":0.00356816,"MEAN_MOTION_DDOT":0},{"OBJECT_NAME":"STARLINK-36843","OBJECT_ID":"2026-034G","EPOCH":"2026-03-19T05:01:23.554560","MEAN_MOTION":15.80929156,"ECCENTRICITY":0.00021206,"INCLINATION":53.1566,"RA_OF_ASC_NODE":163.5868,"ARG_OF_PERICENTER":85.6573,"MEAN_ANOMALY":274.4692,"EPHEMERIS_TYPE":0,"CLASSIFICATION_TYPE":"U","NORAD_CAT_ID":67856,"ELEMENT_SET_NO":999,"REV_AT_EPOCH":544,"BSTAR":0.0013142851,"MEAN_MOTION_DOT":0.00267592,"MEAN_MOTION_DDOT":0},{"OBJECT_NAME":"STARLINK-36828","OBJECT_ID":"2026-034H","EPOCH":"2026-03-18T22:58:20.404704","MEAN_MOTION":15.80957695,"ECCENTRICITY":0.0003224,"INCLINATION":53.1579,"RA_OF_ASC_NODE":164.859,"ARG_OF_PERICENTER":83.1023,"MEAN_ANOMALY":277.0366,"EPHEMERIS_TYPE":0,"CLASSIFICATION_TYPE":"U","NORAD_CAT_ID":67857,"ELEMENT_SET_NO":999,"REV_AT_EPOCH":540,"BSTAR":0.001454483,"MEAN_MOTION_DOT":0.00297673,"MEAN_MOTION_DDOT":0},{"OBJECT_NAME":"STARLINK-36837","OBJECT_ID":"2026-034J","EPOCH":"2026-03-18T22:56:10.847904","MEAN_MOTION":15.80934235,"ECCENTRICITY":0.00039359,"INCLINATION":53.1573,"RA_OF_ASC_NODE":164.8484,"ARG_OF_PERICENTER":77.864,"MEAN_ANOMALY":282.2823,"EPHEMERIS_TYPE":0,"CLASSIFICATION_TYPE":"U","NORAD_CAT_ID":67858,"ELEMENT_SET_NO":999,"REV_AT_EPOCH":540,"BSTAR":0.0012073952,"MEAN_MOTION_DOT":0.00245243,"MEAN_MOTION_DDOT":0},{"OBJECT_NAME":"STARLINK-36393","OBJECT_ID":"2026-034K","EPOCH":"2026-03-18T22:55:05.982240","MEAN_MOTION":15.8096636,"ECCENTRICITY":0.00043984,"INCLINATION":53.1583,"RA_OF_ASC_NODE":164.8437,"ARG_OF_PERICENTER":67.0518,"MEAN_ANOMALY":293.0968,"EPHEMERIS_TYPE":0,"CLASSIFICATION_TYPE":"U","NORAD_CAT_ID":67859,"ELEMENT_SET_NO":999,"REV_AT_EPOCH":540,"BSTAR":0.001671309,"MEAN_MOTION_DOT":0.00344212,"MEAN_MOTION_DDOT":0},{"OBJECT_NAME":"STARLINK-35873","OBJECT_ID":"2026-034L","EPOCH":"2026-03-18T15:18:49.456224","MEAN_MOTION":15.80951784,"ECCENTRICITY":0.000127,"INCLINATION":53.1582,"RA_OF_ASC_NODE":166.4226,"ARG_OF_PERICENTER":90.5629,"MEAN_ANOMALY":269.5539,"EPHEMERIS_TYPE":0,"CLASSIFICATION_TYPE":"U","NORAD_CAT_ID":67860,"ELEMENT_SET_NO":999,"REV_AT_EPOCH":538,"BSTAR":0.0010962,"MEAN_MOTION_DOT":0.00222121,"MEAN_MOTION_DDOT":0},{"OBJECT_NAME":"STARLINK-36325","OBJECT_ID":"2026-034M","EPOCH":"2026-03-18T22:52:56.580096","MEAN_MOTION":15.80972637,"ECCENTRICITY":0.00041933,"INCLINATION":53.1582,"RA_OF_ASC_NODE":164.8331,"ARG_OF_PERICENTER":75.1861,"MEAN_ANOMALY":284.9626,"EPHEMERIS_TYPE":0,"CLASSIFICATION_TYPE":"U","NORAD_CAT_ID":67861,"ELEMENT_SET_NO":999,"REV_AT_EPOCH":540,"BSTAR":0.001805241,"MEAN_MOTION_DOT":0.00373204,"MEAN_MOTION_DDOT":0},{"OBJECT_NAME":"STARLINK-36332","OBJECT_ID":"2026-034N","EPOCH":"2026-03-19T04:55:59.376576","MEAN_MOTION":15.8105864,"ECCENTRICITY":0.00024879,"INCLINATION":53.1582,"RA_OF_ASC_NODE":163.5606,"ARG_OF_PERICENTER":303.3567,"MEAN_ANOMALY":56.7217,"EPHEMERIS_TYPE":0,"CLASSIFICATION_TYPE":"U","NORAD_CAT_ID":67862,"ELEMENT_SET_NO":999,"REV_AT_EPOCH":544,"BSTAR":0.001400707,"MEAN_MOTION_DOT":0.00287621,"MEAN_MOTION_DDOT":0},{"OBJECT_NAME":"STARLINK-36835","OBJECT_ID":"2026-034P","EPOCH":"2026-03-19T04:54:54.592128","MEAN_MOTION":15.80935568,"ECCENTRICITY":0.00019833,"INCLINATION":53.1559,"RA_OF_ASC_NODE":163.5552,"ARG_OF_PERICENTER":89.8289,"MEAN_ANOMALY":270.2961,"EPHEMERIS_TYPE":0,"CLASSIFICATION_TYPE":"U","NORAD_CAT_ID":67863,"ELEMENT_SET_NO":999,"REV_AT_EPOCH":544,"BSTAR":0.0013719041,"MEAN_MOTION_DOT":0.00279836,"MEAN_MOTION_DDOT":0},{"OBJECT_NAME":"STARLINK-36831","OBJECT_ID":"2026-034Q","EPOCH":"2026-03-18T22:49:41.656512","MEAN_MOTION":15.80988921,"ECCENTRICITY":0.00032155,"INCLINATION":53.1589,"RA_OF_ASC_NODE":164.8178,"ARG_OF_PERICENTER":67.9829,"MEAN_ANOMALY":292.1536,"EPHEMERIS_TYPE":0,"CLASSIFICATION_TYPE":"U","NORAD_CAT_ID":67864,"ELEMENT_SET_NO":999,"REV_AT_EPOCH":540,"BSTAR":0.0017279541,"MEAN_MOTION_DOT":0.00356731,"MEAN_MOTION_DDOT":0},{"OBJECT_NAME":"STARLINK-36738","OBJECT_ID":"2026-034R","EPOCH":"2026-03-18T22:48:37.269504","MEAN_MOTION":15.80984836,"ECCENTRICITY":0.00042828,"INCLINATION":53.1596,"RA_OF_ASC_NODE":164.812,"ARG_OF_PERICENTER":76.815,"MEAN_ANOMALY":283.3351,"EPHEMERIS_TYPE":0,"CLASSIFICATION_TYPE":"U","NORAD_CAT_ID":67865,"ELEMENT_SET_NO":999,"REV_AT_EPOCH":540,"BSTAR":0.0019134986,"MEAN_MOTION_DOT":0.0039695,"MEAN_MOTION_DDOT":0}]
